start=new Date('2023-07-03T00:00:00.000Z').valueOf();
sats=[{"BSTAR":"0.00001327500000","ARG_OF_PERICENTER":"122.7023","MEAN_MOTION_DOT":"0.00000112","CENTER_NAME":"EARTH","ECCENTRICITY":"0.00009880","FILE":"3946956","PERIOD":"95.919","EPOCH":"2023-07-01T17:10:35.656608","CLASSIFICATION_TYPE":"U","OBJECT_TYPE":"PAYLOAD","NORAD_CAT_ID":"56341","SEMIMAJOR_AXIS":"6941.150","MEAN_MOTION":"15.01259062","REF_FRAME":"TEME","TLE_LINE2":"2 56341  97.6527 183.6004 0000988 122.7023 237.4297 15.01259062 10311","MEAN_ELEMENT_THEORY":"SGP4","EPHEMERIS_TYPE":"0","REV_AT_EPOCH":"1031","MEAN_MOTION_DDOT":"0.0000000000000","RCS_SIZE":"LARGE","MEAN_ANOMALY":"237.4297","OBJECT_NAME":"STARLINK-5543","SITE":"AFWTR","LAUNCH_DATE":"2023-04-27","RA_OF_ASC_NODE":"183.6004","OBJECT_ID":"2023-058AA","TIME_SYSTEM":"UTC","ELEMENT_SET_NO":"999","GP_ID":"234655187","INCLINATION":"97.6527","TLE_LINE1":"1 56341U 23058AA  23182.71569047  .00000112  00000-0  13275-4 0  9998","COUNTRY_CODE":"US","APOAPSIS":"563.701","DECAY_DATE":null,"PERIAPSIS":"562.329"},{"RA_OF_ASC_NODE":"183.5947","OBJECT_ID":"2023-058AB","LAUNCH_DATE":"2023-04-27","SITE":"AFWTR","OBJECT_NAME":"STARLINK-5955","RCS_SIZE":"LARGE","MEAN_ANOMALY":"254.3074","REV_AT_EPOCH":"1031","MEAN_MOTION_DDOT":"0.0000000000000","MEAN_ELEMENT_THEORY":"SGP4","EPHEMERIS_TYPE":"0","TLE_LINE2":"2 56342  97.6527 183.5947 0001483 105.8314 254.3074 15.01259230 10311","PERIAPSIS":"561.985","DECAY_DATE":null,"COUNTRY_CODE":"US","TLE_LINE1":"1 56342U 23058AB  23182.72100304  .00000399  00000-0  35668-4 0  9994","APOAPSIS":"564.044","INCLINATION":"97.6527","ELEMENT_SET_NO":"999","GP_ID":"234655180","TIME_SYSTEM":"UTC","FILE":"3946956","ECCENTRICITY":"0.00014830","CENTER_NAME":"EARTH","MEAN_MOTION_DOT":"0.00000399","ARG_OF_PERICENTER":"105.8314","BSTAR":"0.00003566800000","REF_FRAME":"TEME","SEMIMAJOR_AXIS":"6941.149","MEAN_MOTION":"15.01259230","OBJECT_TYPE":"PAYLOAD","NORAD_CAT_ID":"56342","CLASSIFICATION_TYPE":"U","EPOCH":"2023-07-01T17:18:14.662656","PERIOD":"95.919"},{"MEAN_ELEMENT_THEORY":"SGP4","EPHEMERIS_TYPE":"0","TLE_LINE2":"2 56343  97.6529 184.3254 0000960 122.9051 237.2266 15.01256954 10426","RCS_SIZE":"LARGE","MEAN_ANOMALY":"237.2266","MEAN_MOTION_DDOT":"0.0000000000000","REV_AT_EPOCH":"1042","LAUNCH_DATE":"2023-04-27","SITE":"AFWTR","OBJECT_NAME":"STARLINK-5976","OBJECT_ID":"2023-058AC","RA_OF_ASC_NODE":"184.3254","ELEMENT_SET_NO":"999","GP_ID":"234668890","TIME_SYSTEM":"UTC","DECAY_DATE":null,"PERIAPSIS":"562.355","APOAPSIS":"563.688","TLE_LINE1":"1 56343U 23058AC  23183.44678553  .00001327  00000-0  10792-3 0  9993","COUNTRY_CODE":"US","INCLINATION":"97.6529","BSTAR":"0.00010792000000","MEAN_MOTION_DOT":"0.00001327","ARG_OF_PERICENTER":"122.9051","CENTER_NAME":"EARTH","ECCENTRICITY":"0.00009600","FILE":"3947509","PERIOD":"95.920","CLASSIFICATION_TYPE":"U","EPOCH":"2023-07-02T10:43:22.269792","NORAD_CAT_ID":"56343","OBJECT_TYPE":"PAYLOAD","REF_FRAME":"TEME","MEAN_MOTION":"15.01256954","SEMIMAJOR_AXIS":"6941.156"},{"LAUNCH_DATE":"2023-04-27","OBJECT_NAME":"STARLINK-5974","SITE":"AFWTR","RA_OF_ASC_NODE":"183.5988","OBJECT_ID":"2023-058AD","MEAN_ELEMENT_THEORY":"SGP4","EPHEMERIS_TYPE":"0","TLE_LINE2":"2 56344  97.6527 183.5988 0001161 116.6720 243.4623 15.01258917 10312","MEAN_ANOMALY":"243.4623","RCS_SIZE":"LARGE","MEAN_MOTION_DDOT":"0.0000000000000","REV_AT_EPOCH":"1031","DECAY_DATE":null,"PERIAPSIS":"562.209","TLE_LINE1":"1 56344U 23058AD  23182.71729754  .00000331  00000-0  30369-4 0  9990","COUNTRY_CODE":"US","APOAPSIS":"563.821","INCLINATION":"97.6527","ELEMENT_SET_NO":"999","GP_ID":"234654681","TIME_SYSTEM":"UTC","CENTER_NAME":"EARTH","ECCENTRICITY":"0.00011610","FILE":"3946956","BSTAR":"0.00003036900000","MEAN_MOTION_DOT":"0.00000331","ARG_OF_PERICENTER":"116.6720","NORAD_CAT_ID":"56344","OBJECT_TYPE":"PAYLOAD","REF_FRAME":"TEME","MEAN_MOTION":"15.01258917","SEMIMAJOR_AXIS":"6941.150","PERIOD":"95.919","EPOCH":"2023-07-01T17:12:54.507456","CLASSIFICATION_TYPE":"U"},{"EPHEMERIS_TYPE":"0","MEAN_ELEMENT_THEORY":"SGP4","TLE_LINE2":"2 56345  97.6529 183.9355 0000730 147.5023 212.6246 15.01260900 10366","RCS_SIZE":"LARGE","MEAN_ANOMALY":"212.6246","REV_AT_EPOCH":"1036","MEAN_MOTION_DDOT":"0.0000000000000","LAUNCH_DATE":"2023-04-27","SITE":"AFWTR","OBJECT_NAME":"STARLINK-5979","RA_OF_ASC_NODE":"183.9355","OBJECT_ID":"2023-058AE","ELEMENT_SET_NO":"999","GP_ID":"234661940","TIME_SYSTEM":"UTC","PERIAPSIS":"562.502","DECAY_DATE":null,"TLE_LINE1":"1 56345U 23058AE  23183.04339449 -.00000162  00000-0 -80326-5 0  9999","COUNTRY_CODE":"US","APOAPSIS":"563.516","INCLINATION":"97.6529","BSTAR":"-0.00000803260000","MEAN_MOTION_DOT":"-0.00000162","ARG_OF_PERICENTER":"147.5023","CENTER_NAME":"EARTH","FILE":"3947272","ECCENTRICITY":"0.00007300","PERIOD":"95.919","CLASSIFICATION_TYPE":"U","EPOCH":"2023-07-02T01:02:29.283936","OBJECT_TYPE":"PAYLOAD","NORAD_CAT_ID":"56345","REF_FRAME":"TEME","SEMIMAJOR_AXIS":"6941.144","MEAN_MOTION":"15.01260900"},{"TIME_SYSTEM":"UTC","GP_ID":"234655698","ELEMENT_SET_NO":"999","INCLINATION":"97.6527","TLE_LINE1":"1 56346U 23058AF  23182.71544527  .00000039  00000-0  76485-5 0  9990","COUNTRY_CODE":"US","APOAPSIS":"563.695","PERIAPSIS":"562.338","DECAY_DATE":null,"TLE_LINE2":"2 56346  97.6527 183.6006 0000977 145.8587 214.2700 15.01258459 10318","EPHEMERIS_TYPE":"0","MEAN_ELEMENT_THEORY":"SGP4","REV_AT_EPOCH":"1031","MEAN_MOTION_DDOT":"0.0000000000000","MEAN_ANOMALY":"214.2700","RCS_SIZE":"LARGE","OBJECT_NAME":"STARLINK-5837","SITE":"AFWTR","LAUNCH_DATE":"2023-04-27","RA_OF_ASC_NODE":"183.6006","OBJECT_ID":"2023-058AF","PERIOD":"95.920","CLASSIFICATION_TYPE":"U","EPOCH":"2023-07-01T17:10:14.471328","OBJECT_TYPE":"PAYLOAD","NORAD_CAT_ID":"56346","SEMIMAJOR_AXIS":"6941.152","MEAN_MOTION":"15.01258459","REF_FRAME":"TEME","BSTAR":"0.00000764850000","ARG_OF_PERICENTER":"145.8587","MEAN_MOTION_DOT":"0.00000039","CENTER_NAME":"EARTH","ECCENTRICITY":"0.00009770","FILE":"3946978"},{"CLASSIFICATION_TYPE":"U","EPOCH":"2023-07-02T01:02:08.005344","PERIOD":"95.920","SEMIMAJOR_AXIS":"6941.155","MEAN_MOTION":"15.01257283","REF_FRAME":"TEME","OBJECT_TYPE":"PAYLOAD","NORAD_CAT_ID":"56347","ARG_OF_PERICENTER":"124.2064","MEAN_MOTION_DOT":"0.00001401","BSTAR":"0.00011362000000","ECCENTRICITY":"0.00008150","FILE":"3947249","CENTER_NAME":"EARTH","TIME_SYSTEM":"UTC","ELEMENT_SET_NO":"999","GP_ID":"234662444","COUNTRY_CODE":"US","TLE_LINE1":"1 56347U 23058AG  23183.04314821  .00001401  00000-0  11362-3 0  9995","APOAPSIS":"563.586","INCLINATION":"97.6529","DECAY_DATE":null,"PERIAPSIS":"562.455","REV_AT_EPOCH":"1036","MEAN_MOTION_DDOT":"0.0000000000000","RCS_SIZE":"LARGE","MEAN_ANOMALY":"235.9238","TLE_LINE2":"2 56347  97.6529 183.9359 0000815 124.2064 235.9238 15.01257283 10362","MEAN_ELEMENT_THEORY":"SGP4","EPHEMERIS_TYPE":"0","RA_OF_ASC_NODE":"183.9359","OBJECT_ID":"2023-058AG","OBJECT_NAME":"STARLINK-5829","SITE":"AFWTR","LAUNCH_DATE":"2023-04-27"},{"TLE_LINE1":"1 56348U 23058AH  23183.44491908 -.00000442  00000-0 -29865-4 0  9996","COUNTRY_CODE":"US","APOAPSIS":"563.725","INCLINATION":"97.6529","PERIAPSIS":"562.316","DECAY_DATE":null,"TIME_SYSTEM":"UTC","GP_ID":"234668920","ELEMENT_SET_NO":"999","RA_OF_ASC_NODE":"184.3278","OBJECT_ID":"2023-058AH","OBJECT_NAME":"STARLINK-5888","SITE":"AFWTR","LAUNCH_DATE":"2023-04-27","REV_AT_EPOCH":"1042","MEAN_MOTION_DDOT":"0.0000000000000","RCS_SIZE":"LARGE","MEAN_ANOMALY":"215.2053","TLE_LINE2":"2 56348  97.6529 184.3278 0001015 144.9238 215.2053 15.01257152 10421","MEAN_ELEMENT_THEORY":"SGP4","EPHEMERIS_TYPE":"0","SEMIMAJOR_AXIS":"6941.156","MEAN_MOTION":"15.01257152","REF_FRAME":"TEME","OBJECT_TYPE":"PAYLOAD","NORAD_CAT_ID":"56348","EPOCH":"2023-07-02T10:40:41.008512","CLASSIFICATION_TYPE":"U","PERIOD":"95.920","FILE":"3947512","ECCENTRICITY":"0.00010150","CENTER_NAME":"EARTH","ARG_OF_PERICENTER":"144.9238","MEAN_MOTION_DOT":"-0.00000442","BSTAR":"-0.00002986500000"},{"TIME_SYSTEM":"UTC","ELEMENT_SET_NO":"999","GP_ID":"234668460","APOAPSIS":"563.638","TLE_LINE1":"1 56349U 23058AJ  23183.43590486 -.00000179  00000-0 -93123-5 0  9993","COUNTRY_CODE":"US","INCLINATION":"97.6535","PERIAPSIS":"562.393","DECAY_DATE":null,"TLE_LINE2":"2 56349  97.6535 184.3403 0000897 114.9980 245.1337 15.01258799 10422","MEAN_ELEMENT_THEORY":"SGP4","EPHEMERIS_TYPE":"0","REV_AT_EPOCH":"1042","MEAN_MOTION_DDOT":"0.0000000000000","RCS_SIZE":"LARGE","MEAN_ANOMALY":"245.1337","OBJECT_NAME":"STARLINK-5887","SITE":"AFWTR","LAUNCH_DATE":"2023-04-27","RA_OF_ASC_NODE":"184.3403","OBJECT_ID":"2023-058AJ","PERIOD":"95.920","CLASSIFICATION_TYPE":"U","EPOCH":"2023-07-02T10:27:42.179904","OBJECT_TYPE":"PAYLOAD","NORAD_CAT_ID":"56349","SEMIMAJOR_AXIS":"6941.151","MEAN_MOTION":"15.01258799","REF_FRAME":"TEME","BSTAR":"-0.00000931230000","ARG_OF_PERICENTER":"114.9980","MEAN_MOTION_DOT":"-0.00000179","CENTER_NAME":"EARTH","ECCENTRICITY":"0.00008970","FILE":"3947514"},{"BSTAR":"-0.00003030200000","MEAN_MOTION_DOT":"-0.00000448","ARG_OF_PERICENTER":"127.2935","CENTER_NAME":"EARTH","ECCENTRICITY":"0.00006670","FILE":"3947529","PERIOD":"95.919","CLASSIFICATION_TYPE":"U","EPOCH":"2023-07-02T10:32:40.953696","OBJECT_TYPE":"PAYLOAD","NORAD_CAT_ID":"56350","REF_FRAME":"TEME","SEMIMAJOR_AXIS":"6941.150","MEAN_MOTION":"15.01258953","MEAN_ELEMENT_THEORY":"SGP4","EPHEMERIS_TYPE":"0","TLE_LINE2":"2 56350  97.6531 184.3350 0000667 127.2935 232.8350 15.01258953 10423","RCS_SIZE":"LARGE","MEAN_ANOMALY":"232.8350","REV_AT_EPOCH":"1042","MEAN_MOTION_DDOT":"0.0000000000000","LAUNCH_DATE":"2023-04-27","OBJECT_NAME":"STARLINK-5886","SITE":"AFWTR","RA_OF_ASC_NODE":"184.3350","OBJECT_ID":"2023-058AK","GP_ID":"234668955","ELEMENT_SET_NO":"999","TIME_SYSTEM":"UTC","PERIAPSIS":"562.552","DECAY_DATE":null,"INCLINATION":"97.6531","TLE_LINE1":"1 56350U 23058AK  23183.43936289 -.00000448  00000-0 -30302-4 0  9998","COUNTRY_CODE":"US","APOAPSIS":"563.478"}];
